[{"OBJECT_NAME":"ONEWEB-0545","OBJECT_ID":"2022-166F","EPOCH":"2026-01-14T10:49:33.311136","MEAN_MOTION":13.21825835,"ECCENTRICITY":0.00021153,"INCLINATION":87.9217,"RA_OF_ASC_NODE":274.6531,"ARG_OF_PERICENTER":73.9964,"MEAN_ANOMALY":286.1403,"EPHEMERIS_TYPE":0,"CLASSIFICATION_TYPE":"U","NORAD_CAT_ID":54647,"ELEMENT_SET_NO":999,"REV_AT_EPOCH":15119,"BSTAR":-2.7994994e-5,"MEAN_MOTION_DOT":1.0e-8,"MEAN_MOTION_DDOT":0},{"OBJECT_NAME":"ONEWEB-0580","OBJECT_ID":"2022-166G","EPOCH":"2026-01-14T15:38:37.844160","MEAN_MOTION":13.21828723,"ECCENTRICITY":0.00019817,"INCLINATION":87.9219,"RA_OF_ASC_NODE":274.6126,"ARG_OF_PERICENTER":77.9371,"MEAN_ANOMALY":282.1985,"EPHEMERIS_TYPE":0,"CLASSIFICATION_TYPE":"U","NORAD_CAT_ID":54648,"ELEMENT_SET_NO":999,"REV_AT_EPOCH":15126,"BSTAR":0.0001008835,"MEAN_MOTION_DOT":5.5e-7,"MEAN_MOTION_DDOT":0},{"OBJECT_NAME":"ONEWEB-0582","OBJECT_ID":"2022-166H","EPOCH":"2026-01-14T05:46:14.256192","MEAN_MOTION":13.21825333,"ECCENTRICITY":0.00020897,"INCLINATION":87.9218,"RA_OF_ASC_NODE":274.6873,"ARG_OF_PERICENTER":73.8607,"MEAN_ANOMALY":286.2756,"EPHEMERIS_TYPE":0,"CLASSIFICATION_TYPE":"U","NORAD_CAT_ID":54649,"ELEMENT_SET_NO":999,"REV_AT_EPOCH":15118,"BSTAR":4.879806e-6,"MEAN_MOTION_DOT":1.5e-7,"MEAN_MOTION_DDOT":0},{"OBJECT_NAME":"ONEWEB-0583","OBJECT_ID":"2022-166J","EPOCH":"2026-01-14T06:02:49.498656","MEAN_MOTION":13.21825129,"ECCENTRICITY":0.00016945,"INCLINATION":87.9217,"RA_OF_ASC_NODE":274.7089,"ARG_OF_PERICENTER":72.9705,"MEAN_ANOMALY":287.1614,"EPHEMERIS_TYPE":0,"CLASSIFICATION_TYPE":"U","NORAD_CAT_ID":54650,"ELEMENT_SET_NO":999,"REV_AT_EPOCH":15119,"BSTAR":4.010482e-6,"MEAN_MOTION_DOT":1.5e-7,"MEAN_MOTION_DDOT":0},{"OBJECT_NAME":"ONEWEB-0584","OBJECT_ID":"2022-166K","EPOCH":"2026-01-14T02:53:16.093824","MEAN_MOTION":13.2182596,"ECCENTRICITY":0.00019712,"INCLINATION":87.9221,"RA_OF_ASC_NODE":274.7224,"ARG_OF_PERICENTER":79.5053,"MEAN_ANOMALY":280.6303,"EPHEMERIS_TYPE":0,"CLASSIFICATION_TYPE":"U","NORAD_CAT_ID":54651,"ELEMENT_SET_NO":999,"REV_AT_EPOCH":15116,"BSTAR":0.00019820116,"MEAN_MOTION_DOT":9.5e-7,"MEAN_MOTION_DDOT":0},{"OBJECT_NAME":"ONEWEB-0585","OBJECT_ID":"2022-166L","EPOCH":"2026-01-14T10:44:47.625216","MEAN_MOTION":13.21827974,"ECCENTRICITY":0.00014967,"INCLINATION":87.9219,"RA_OF_ASC_NODE":274.6415,"ARG_OF_PERICENTER":78.566,"MEAN_ANOMALY":281.5642,"EPHEMERIS_TYPE":0,"CLASSIFICATION_TYPE":"U","NORAD_CAT_ID":54652,"ELEMENT_SET_NO":999,"REV_AT_EPOCH":15121,"BSTAR":9.2806043e-5,"MEAN_MOTION_DOT":5.1e-7,"MEAN_MOTION_DDOT":0},{"OBJECT_NAME":"ONEWEB-0586","OBJECT_ID":"2022-166M","EPOCH":"2026-01-14T05:36:44.793792","MEAN_MOTION":13.21828118,"ECCENTRICITY":0.00017268,"INCLINATION":87.9217,"RA_OF_ASC_NODE":274.7092,"ARG_OF_PERICENTER":73.745,"MEAN_ANOMALY":286.3874,"EPHEMERIS_TYPE":0,"CLASSIFICATION_TYPE":"U","NORAD_CAT_ID":54653,"ELEMENT_SET_NO":999,"REV_AT_EPOCH":15118,"BSTAR":3.7617435e-5,"MEAN_MOTION_DOT":2.9e-7,"MEAN_MOTION_DDOT":0},{"OBJECT_NAME":"ONEWEB-0587","OBJECT_ID":"2022-166N","EPOCH":"2026-01-14T05:50:58.337664","MEAN_MOTION":13.21825302,"ECCENTRICITY":0.00012194,"INCLINATION":87.9227,"RA_OF_ASC_NODE":274.6662,"ARG_OF_PERICENTER":82.3101,"MEAN_ANOMALY":277.8172,"EPHEMERIS_TYPE":0,"CLASSIFICATION_TYPE":"U","NORAD_CAT_ID":54654,"ELEMENT_SET_NO":999,"REV_AT_EPOCH":15134,"BSTAR":-0.00010738732,"MEAN_MOTION_DOT":-3.1e-7,"MEAN_MOTION_DDOT":0},{"OBJECT_NAME":"ONEWEB-0589","OBJECT_ID":"2022-166P","EPOCH":"2026-01-14T05:32:00.993120","MEAN_MOTION":13.21825768,"ECCENTRICITY":0.00024214,"INCLINATION":87.9217,"RA_OF_ASC_NODE":274.7002,"ARG_OF_PERICENTER":78.2955,"MEAN_ANOMALY":281.845,"EPHEMERIS_TYPE":0,"CLASSIFICATION_TYPE":"U","NORAD_CAT_ID":54655,"ELEMENT_SET_NO":999,"REV_AT_EPOCH":15120,"BSTAR":0.00019661016,"MEAN_MOTION_DOT":9.4e-7,"MEAN_MOTION_DDOT":0},{"OBJECT_NAME":"ONEWEB-0590","OBJECT_ID":"2022-166Q","EPOCH":"2026-01-14T09:45:22.127040","MEAN_MOTION":13.21825422,"ECCENTRICITY":0.00016624,"INCLINATION":87.9221,"RA_OF_ASC_NODE":274.6427,"ARG_OF_PERICENTER":91.5101,"MEAN_ANOMALY":268.6223,"EPHEMERIS_TYPE":0,"CLASSIFICATION_TYPE":"U","NORAD_CAT_ID":54656,"ELEMENT_SET_NO":999,"REV_AT_EPOCH":15121,"BSTAR":-7.2630132e-5,"MEAN_MOTION_DOT":-1.7e-7,"MEAN_MOTION_DDOT":0},{"OBJECT_NAME":"ONEWEB-0591","OBJECT_ID":"2022-166R","EPOCH":"2026-01-14T02:46:07.447872","MEAN_MOTION":13.21828246,"ECCENTRICITY":0.0001674,"INCLINATION":87.922,"RA_OF_ASC_NODE":274.7239,"ARG_OF_PERICENTER":79.2783,"MEAN_ANOMALY":280.8539,"EPHEMERIS_TYPE":0,"CLASSIFICATION_TYPE":"U","NORAD_CAT_ID":54657,"ELEMENT_SET_NO":999,"REV_AT_EPOCH":15120,"BSTAR":6.695201e-5,"MEAN_MOTION_DOT":4.1e-7,"MEAN_MOTION_DDOT":0},{"OBJECT_NAME":"ONEWEB-0592","OBJECT_ID":"2022-166S","EPOCH":"2026-01-14T04:39:51.340608","MEAN_MOTION":13.21827399,"ECCENTRICITY":0.00016599,"INCLINATION":87.9229,"RA_OF_ASC_NODE":274.674,"ARG_OF_PERICENTER":77.9517,"MEAN_ANOMALY":282.1803,"EPHEMERIS_TYPE":0,"CLASSIFICATION_TYPE":"U","NORAD_CAT_ID":54658,"ELEMENT_SET_NO":999,"REV_AT_EPOCH":15109,"BSTAR":-0.00025924245,"MEAN_MOTION_DOT":-9.4e-7,"MEAN_MOTION_DDOT":0},{"OBJECT_NAME":"ONEWEB-0593","OBJECT_ID":"2022-166T","EPOCH":"2026-01-14T05:13:03.370368","MEAN_MOTION":13.21825786,"ECCENTRICITY":0.00016931,"INCLINATION":87.9218,"RA_OF_ASC_NODE":274.6933,"ARG_OF_PERICENTER":71.7776,"MEAN_ANOMALY":288.3542,"EPHEMERIS_TYPE":0,"CLASSIFICATION_TYPE":"U","NORAD_CAT_ID":54659,"ELEMENT_SET_NO":999,"REV_AT_EPOCH":15120,"BSTAR":8.3025611e-5,"MEAN_MOTION_DOT":4.7e-7,"MEAN_MOTION_DDOT":0},{"OBJECT_NAME":"ONEWEB-0594","OBJECT_ID":"2022-166U","EPOCH":"2026-01-14T05:41:28.350816","MEAN_MOTION":13.21828555,"ECCENTRICITY":0.00015079,"INCLINATION":87.9219,"RA_OF_ASC_NODE":274.7073,"ARG_OF_PERICENTER":76.4332,"MEAN_ANOMALY":283.697,"EPHEMERIS_TYPE":0,"CLASSIFICATION_TYPE":"U","NORAD_CAT_ID":54660,"ELEMENT_SET_NO":999,"REV_AT_EPOCH":15122,"BSTAR":4.629228e-6,"MEAN_MOTION_DOT":1.5e-7,"MEAN_MOTION_DDOT":0},{"OBJECT_NAME":"ONEWEB-0595","OBJECT_ID":"2022-166V","EPOCH":"2026-01-14T05:08:18.162240","MEAN_MOTION":13.21826382,"ECCENTRICITY":0.00014292,"INCLINATION":87.9216,"RA_OF_ASC_NODE":274.6844,"ARG_OF_PERICENTER":79.3814,"MEAN_ANOMALY":280.7481,"EPHEMERIS_TYPE":0,"CLASSIFICATION_TYPE":"U","NORAD_CAT_ID":54661,"ELEMENT_SET_NO":999,"REV_AT_EPOCH":15119,"BSTAR":-0.00047048084,"MEAN_MOTION_DOT":-1.81e-6,"MEAN_MOTION_DDOT":0},{"OBJECT_NAME":"ONEWEB-0596","OBJECT_ID":"2022-166W","EPOCH":"2026-01-14T11:46:24.223296","MEAN_MOTION":13.21828238,"ECCENTRICITY":0.00015801,"INCLINATION":87.9217,"RA_OF_ASC_NODE":274.6467,"ARG_OF_PERICENTER":79.5453,"MEAN_ANOMALY":280.5859,"EPHEMERIS_TYPE":0,"CLASSIFICATION_TYPE":"U","NORAD_CAT_ID":54662,"ELEMENT_SET_NO":999,"REV_AT_EPOCH":15123,"BSTAR":6.5501342e-5,"MEAN_MOTION_DOT":4.0e-7,"MEAN_MOTION_DDOT":0},{"OBJECT_NAME":"ONEWEB-0597","OBJECT_ID":"2022-166X","EPOCH":"2026-01-14T05:53:20.781888","MEAN_MOTION":13.21825476,"ECCENTRICITY":0.00017352,"INCLINATION":87.9217,"RA_OF_ASC_NODE":274.7005,"ARG_OF_PERICENTER":76.3651,"MEAN_ANOMALY":283.7676,"EPHEMERIS_TYPE":0,"CLASSIFICATION_TYPE":"U","NORAD_CAT_ID":54663,"ELEMENT_SET_NO":999,"REV_AT_EPOCH":15120,"BSTAR":-9.0160907e-5,"MEAN_MOTION_DOT":-2.4e-7,"MEAN_MOTION_DDOT":0}]
